GLOBALSTAR M067         
1 32263U 07048A   24193.55295421 -.00000049  00000+0  35890-3 0  9998
2 32263  51.9743 312.6399 0000536  32.9764  47.6889 12.40648933767209
GLOBALSTAR M070         
1 32264U 07048B   24193.12015990 -.00000072  00000+0  17832-3 0  9995
2 32264  51.9754  87.5135 0001019  62.1497  85.9000 12.62295475770592
GLOBALSTAR M066         
1 32265U 07048C   24193.62636880 -.00000089  00000+0  84973-4 0  9997
2 32265  51.9691 307.9342 0000794 156.8006 305.5373 12.62264853772927
GLOBALSTAR M068         
1 32266U 07048D   24193.58867719 -.00000048  00000+0  31245-3 0  9998
2 32266  51.9877 260.4921 0001291 121.1474  29.4903 12.62794107774526
GLOBALSTAR M079         
1 37188U 10054A   24193.31061862 -.00000083  00000+0  11338-3 0  9993
2 37188  52.0041  97.4678 0000472  31.5682 125.0767 12.62271586633404
GLOBALSTAR M074         
1 37189U 10054B   24193.09598903 -.00000073  00000+0  17158-3 0  9995
2 37189  52.0018  97.4979 0000660  52.8382  87.0217 12.62270100633986
GLOBALSTAR M076         
1 37190U 10054C   24193.28278253 -.00000086  00000+0  10123-3 0  9990
2 37190  52.0033  97.0685 0000802  19.6911 130.0038 12.62262568633723
GLOBALSTAR M077         
1 37191U 10054D   24193.56084559 -.00000092  00000+0  64445-4 0  9990
2 37191  52.0083  52.9801 0000854  71.0906 322.8746 12.62261218634136
